STARLINK-30580          
1 58115U 23161U   26068.55240140 -.00002675  00000+0 -78229-4 0  9999
2 58115  53.1604 165.9333 0001386  87.8627 272.2532 15.30197147134398
TEVEL2-6                
1 63215U 25052F   26068.64958975  .00021046  00000+0  70909-3 0  9996
2 63215  97.4016 325.0381 0004769  95.6604 264.5181 15.30760889 54861
